{"type": "FeatureCollection", "features": [ {"type": "Feature", "properties": {"norad_id": 29930, "name": "FENGYUN 1C DEB", "group": "fengyun-1c-debris", "lat": 50.54482558381769, "lon": -128.2500831046672, "alt_km": 722.3357414239863, "timestamp": "2025-12-26T08:37:54.852721+00:00", "meta": {"OBJECT_NAME": "FENGYUN 1C DEB", "OBJECT_ID": "1999-025JC", "EPOCH": "2025-12-25T15:45:18.808416", "MEAN_MOTION": 14.20832757, "ECCENTRICITY": 0.0164199, "INCLINATION": 99.0438, "RA_OF_ASC_NODE": 242.1884, "ARG_OF_PERICENTER": 16.8127, "MEAN_ANOMALY": 38.7399, "EPHEMERIS_TYPE": 0, "CLASSIFICATION_TYPE": "U", "NORAD_CAT_ID": 29930, "ELEMENT_SET_NO": 999, "REV_AT_EPOCH": 98074, "BSTAR": 0.00027322, "MEAN_MOTION_DOT": 6.29e-06, "MEAN_MOTION_DDOT": 0}, "tle": {"line1": "1 29930U 99025JC  25359.65646769  .00000629  00000+0  27322-3 0  9996", "line2": "2 29930  99.0438 242.1884 0164199  16.8127  38.7399 14.20832757980748"}}, "geometry": {"type": "Point", "coordinates": [-128.2500831046672, 50.54482558381769]}}, {"type": "Feature", "properties": {"norad_id": 29931, "name": "FENGYUN 1C DEB", "group": "fengyun-1c-debris", "lat": -56.28694053595342, "lon": 48.83972379150641, "alt_km": 896.812442851965, "timestamp": "2025-12-26T08:37:54.852731+00:00", "meta": {"OBJECT_NAME": "FENGYUN 1C DEB", "OBJECT_ID": "1999-025JD", "EPOCH": "2025-12-26T02:20:20.657184", "MEAN_MOTION": 14.03905488, "ECCENTRICITY": 0.0032437, "INCLINATION": 98.8588, "RA_OF_ASC_NODE": 35.0673, "ARG_OF_PERICENTER": 57.4039, "MEAN_ANOMALY": 1.2159, "EPHEMERIS_TYPE": 0, "CLASSIFICATION_TYPE": "U", "NORAD_CAT_ID": 29931, "ELEMENT_SET_NO": 999, "REV_AT_EPOCH": 97000, "BSTAR": 0.00013837, "MEAN_MOTION_DOT": 1.76e-06, "MEAN_MOTION_DDOT": 0}, "tle": {"line1": "1 29931U 99025JD  25360.09746131  .00000176  00000+0  13837-3 0  9994", "line2": "2 29931  98.8588  35.0673 0032437  57.4039   1.2159 14.03905488970009"}}, "geometry": {"type": "Point", "coordinates": [48.83972379150641, -56.28694053595342]}}, {"type": "Feature", "properties": {"norad_id": 29932, "name": "FENGYUN 1C DEB", "group": "fengyun-1c-debris", "lat": -54.086122915658194, "lon": 22.752346969329302, "alt_km": 841.6497702760325, "timestamp": "2025-12-26T08:37:54.852741+00:00", "meta": {"OBJECT_NAME": "FENGYUN 1C DEB", "OBJECT_ID": "1999-025JE", "EPOCH": "2025-12-24T11:51:16.194816", "MEAN_MOTION": 14.16776397, "ECCENTRICITY": 0.00381812, "INCLINATION": 98.6339, "RA_OF_ASC_NODE": 8.832, "ARG_OF_PERICENTER": 37.3257, "MEAN_ANOMALY": 117.5952, "EPHEMERIS_TYPE": 0, "CLASSIFICATION_TYPE": "U", "NORAD_CAT_ID": 29932, "ELEMENT_SET_NO": 999, "REV_AT_EPOCH": 97750, "BSTAR": 0.00027186686, "MEAN_MOTION_DOT": 5.05e-06, "MEAN_MOTION_DDOT": 0}, "tle": {"line1": "1 29932U 99025JE  25358.49393744  .00000505  00000+0  27187-3 0  9993", "line2": "2 29932  98.6339   8.8320 0038181  37.3257 117.5952 14.16776397977503"}}, "geometry": {"type": "Point", "coordinates": [22.752346969329302, -54.086122915658194]}}, {"type": "Feature", "properties": {"norad_id": 29933, "name": "FENGYUN 1C DEB", "group": "fengyun-1c-debris", "lat": -76.5574681475434, "lon": 144.55447499007437, "alt_km": 676.0652708776333, "timestamp": "2025-12-26T08:37:54.852752+00:00", "meta": {"OBJECT_NAME": "FENGYUN 1C DEB", "OBJECT_ID": "1999-025JF", "EPOCH": "2025-12-25T13:55:00.907104", "MEAN_MOTION": 14.66302511, "ECCENTRICITY": 0.0005733, "INCLINATION": 98.7481, "RA_OF_ASC_NODE": 103.6158, "ARG_OF_PERICENTER": 284.0307, "MEAN_ANOMALY": 202.3381, "EPHEMERIS_TYPE": 0, "CLASSIFICATION_TYPE": "U", "NORAD_CAT_ID": 29933, "ELEMENT_SET_NO": 999, "REV_AT_EPOCH": 98693, "BSTAR": 0.0034453, "MEAN_MOTION_DOT": 0.00019006, "MEAN_MOTION_DDOT": 0}, "tle": {"line1": "1 29933U 99025JF  25359.57987161  .00019006  00000+0  34453-2 0  9995", "line2": "2 29933  98.7481 103.6158 0005733 284.0307 202.3381 14.66302511986934"}}, "geometry": {"type": "Point", "coordinates": [144.55447499007437, -76.5574681475434]}}, {"type": "Feature", "properties": {"norad_id": 29934, "name": "FENGYUN 1C DEB", "group": "fengyun-1c-debris", "lat": 77.36107269707165, "lon": -87.33719672402506, "alt_km": 698.508771187112, "timestamp": "2025-12-26T08:37:54.852762+00:00", "meta": {"OBJECT_NAME": "FENGYUN 1C DEB", "OBJECT_ID": "1999-025JG", "EPOCH": "2025-12-26T01:36:43.621056", "MEAN_MOTION": 14.63908225, "ECCENTRICITY": 0.0101167, "INCLINATION": 98.9024, "RA_OF_ASC_NODE": 48.0005, "ARG_OF_PERICENTER": 211.114, "MEAN_ANOMALY": 148.4045, "EPHEMERIS_TYPE": 0, "CLASSIFICATION_TYPE": "U", "NORAD_CAT_ID": 29934, "ELEMENT_SET_NO": 999, "REV_AT_EPOCH": 99967, "BSTAR": 0.00084968, "MEAN_MOTION_DOT": 4.728e-05, "MEAN_MOTION_DDOT": 0}, "tle": {"line1": "1 29934U 99025JG  25360.06717154  .00004728  00000+0  84968-3 0  9997", "line2": "2 29934  98.9024  48.0005 0101167 211.1140 148.4045 14.63908225999670"}}, "geometry": {"type": "Point", "coordinates": [-87.33719672402506, 77.36107269707165]}}, {"type": "Feature", "properties": {"norad_id": 29935, "name": "FENGYUN 1C DEB", "group": "fengyun-1c-debris", "lat": -42.92513886774848, "lon": 69.80176577609215, "alt_km": 933.846701069705, "timestamp": "2025-12-26T08:37:54.852771+00:00", "meta": {"OBJECT_NAME": "FENGYUN 1C DEB", "OBJECT_ID": "1999-025JH", "EPOCH": "2025-12-26T04:00:26.504352", "MEAN_MOTION": 14.14245877, "ECCENTRICITY": 0.0150875, "INCLINATION": 98.4596, "RA_OF_ASC_NODE": 61.6629, "ARG_OF_PERICENTER": 177.4816, "MEAN_ANOMALY": 237.4831, "EPHEMERIS_TYPE": 0, "CLASSIFICATION_TYPE": "U", "NORAD_CAT_ID": 29935, "ELEMENT_SET_NO": 999, "REV_AT_EPOCH": 97732, "BSTAR": 0.00013015, "MEAN_MOTION_DOT": 2.37e-06, "MEAN_MOTION_DDOT": 0}, "tle": {"line1": "1 29935U 99025JH  25360.16697343  .00000237  00000+0  13015-3 0  9992", "line2": "2 29935  98.4596  61.6629 0150875 177.4816 237.4831 14.14245877977320"}}, "geometry": {"type": "Point", "coordinates": [69.80176577609215, -42.92513886774848]}}, {"type": "Feature", "properties": {"norad_id": 29936, "name": "FENGYUN 1C DEB", "group": "fengyun-1c-debris", "lat": -51.87516361305895, "lon": 124.97902443710838, "alt_km": 858.0734206670568, "timestamp": "2025-12-26T08:37:54.852782+00:00", "meta": {"OBJECT_NAME": "FENGYUN 1C DEB", "OBJECT_ID": "1999-025JJ", "EPOCH": "2025-12-25T21:10:15.872160", "MEAN_MOTION": 14.35327469, "ECCENTRICITY": 0.0114598, "INCLINATION": 98.6564, "RA_OF_ASC_NODE": 113.307, "ARG_OF_PERICENTER": 148.2564, "MEAN_ANOMALY": 212.5598, "EPHEMERIS_TYPE": 0, "CLASSIFICATION_TYPE": "U", "NORAD_CAT_ID": 29936, "ELEMENT_SET_NO": 999, "REV_AT_EPOCH": 99119, "BSTAR": 0.00017763, "MEAN_MOTION_DOT": 5.02e-06, "MEAN_MOTION_DDOT": 0}, "tle": {"line1": "1 29936U 99025JJ  25359.88212815  .00000502  00000+0  17763-3 0  9996", "line2": "2 29936  98.6564 113.3070 0114598 148.2564 212.5598 14.35327469991197"}}, "geometry": {"type": "Point", "coordinates": [124.97902443710838, -51.87516361305895]}}, {"type": "Feature", "properties": {"norad_id": 29937, "name": "FENGYUN 1C DEB", "group": "fengyun-1c-debris", "lat": -28.518539622164063, "lon": 25.783680378450864, "alt_km": 861.9781362357644, "timestamp": "2025-12-26T08:37:54.852792+00:00", "meta": {"OBJECT_NAME": "FENGYUN 1C DEB", "OBJECT_ID": "1999-025JK", "EPOCH": "2025-12-25T00:31:53.860224", "MEAN_MOTION": 14.0436019, "ECCENTRICITY": 0.0031758, "INCLINATION": 98.8015, "RA_OF_ASC_NODE": 19.6584, "ARG_OF_PERICENTER": 347.2059, "MEAN_ANOMALY": 65.7796, "EPHEMERIS_TYPE": 0, "CLASSIFICATION_TYPE": "U", "NORAD_CAT_ID": 29937, "ELEMENT_SET_NO": 999, "REV_AT_EPOCH": 97108, "BSTAR": 1.211088e-05, "MEAN_MOTION_DOT": -2.3e-07, "MEAN_MOTION_DDOT": 0}, "tle": {"line1": "1 29937U 99025JK  25359.02215116 -.00000023  00000+0  12111-4 0  9992", "line2": "2 29937  98.8015  19.6584 0031758 347.2059  65.7796 14.04360190971083"}}, "geometry": {"type": "Point", "coordinates": [25.783680378450864, -28.518539622164063]}}, {"type": "Feature", "properties": {"norad_id": 29938, "name": "FENGYUN 1C DEB", "group": "fengyun-1c-debris", "lat": 48.36500279816049, "lon": -20.017550528543925, "alt_km": 881.1098333649225, "timestamp": "2025-12-26T08:37:54.852802+00:00", "meta": {"OBJECT_NAME": "FENGYUN 1C DEB", "OBJECT_ID": "1999-025JL", "EPOCH": "2025-12-25T22:25:05.539296", "MEAN_MOTION": 14.0746519, "ECCENTRICITY": 0.0032584, "INCLINATION": 98.8032, "RA_OF_ASC_NODE": 349.6072, "ARG_OF_PERICENTER": 272.6658, "MEAN_ANOMALY": 141.177, "EPHEMERIS_TYPE": 0, "CLASSIFICATION_TYPE": "U", "NORAD_CAT_ID": 29938, "ELEMENT_SET_NO": 999, "REV_AT_EPOCH": 97242, "BSTAR": 0.00015543, "MEAN_MOTION_DOT": 2.2e-06, "MEAN_MOTION_DDOT": 0}, "tle": {"line1": "1 29938U 99025JL  25359.93409189  .00000220  00000+0  15543-3 0  9997", "line2": "2 29938  98.8032 349.6072 0032584 272.6658 141.1770 14.07465190972424"}}, "geometry": {"type": "Point", "coordinates": [-20.017550528543925, 48.36500279816049]}}, {"type": "Feature", "properties": {"norad_id": 29939, "name": "FENGYUN 1C DEB", "group": "fengyun-1c-debris", "lat": -80.46515840211961, "lon": 113.67968369237344, "alt_km": 906.7238502426471, "timestamp": "2025-12-26T08:37:54.852813+00:00", "meta": {"OBJECT_NAME": "FENGYUN 1C DEB", "OBJECT_ID": "1999-025JM", "EPOCH": "2025-12-25T23:07:45.198048", "MEAN_MOTION": 14.1208749, "ECCENTRICITY": 0.0067301, "INCLINATION": 98.7102, "RA_OF_ASC_NODE": 359.1732, "ARG_OF_PERICENTER": 101.4573, "MEAN_ANOMALY": 312.7949, "EPHEMERIS_TYPE": 0, "CLASSIFICATION_TYPE": "U", "NORAD_CAT_ID": 29939, "ELEMENT_SET_NO": 999, "REV_AT_EPOCH": 97647, "BSTAR": 4.876e-05, "MEAN_MOTION_DOT": 4.9e-07, "MEAN_MOTION_DDOT": 0}, "tle": {"line1": "1 29939U 99025JM  25359.96371757  .00000049  00000+0  48760-4 0  9997", "line2": "2 29939  98.7102 359.1732 0067301 101.4573 312.7949 14.12087490976473"}}, "geometry": {"type": "Point", "coordinates": [113.67968369237344, -80.46515840211961]}}]}